OBJECT_NAME,OBJECT_ID,EPOCH,MEAN_MOTION,ECCENTRICITY,INCLINATION,RA_OF_ASC_NODE,ARG_OF_PERICENTER,MEAN_ANOMALY,EPHEMERIS_TYPE,CLASSIFICATION_TYPE,NORAD_CAT_ID,ELEMENT_SET_NO,REV_AT_EPOCH,BSTAR,MEAN_MOTION_DOT,MEAN_MOTION_DDOT
QIANFAN-147,2026-108C,2026-06-06T14:06:22.392288,14.17033400,.00155939,89.0118,23.3973,144.2835,215.9400,0,U,69106,999,284,.14530195E-3,.307E-5,0
QIANFAN-148,2026-108D,2026-06-06T13:57:48.345984,14.17402496,.00160971,89.0119,23.3967,149.2020,211.0116,0,U,69107,999,284,.14082373E-3,.3E-5,0
QIANFAN-149,2026-108E,2026-06-06T13:54:00.111744,14.17857069,.00157465,89.0122,23.3967,148.4679,211.7457,0,U,69108,999,284,.1465699E-3,.314E-5,0
QIANFAN-150,2026-108F,2026-06-06T13:42:08.817696,14.18305512,.00157795,89.0122,23.3956,150.1874,210.0217,0,U,69109,999,284,.14022336E-3,.303E-5,0
QIANFAN-151,2026-108G,2026-06-06T13:34:16.683168,14.18801219,.00159006,89.0122,23.3946,148.7566,211.4572,0,U,69110,999,284,.15051906E-3,.327E-5,0
QIANFAN-152,2026-108H,2026-06-06T13:27:39.098016,14.19418500,.00151117,89.0120,23.3937,148.6676,211.5418,0,U,69111,999,284,.14538004E-3,.32E-5,0
QIANFAN-153,2026-108J,2026-06-06T13:20:24.679680,14.19641654,.00163066,89.0118,23.3926,148.6396,211.5770,0,U,69112,999,284,.14197978E-3,.315E-5,0
QIANFAN-154,2026-108K,2026-06-06T11:29:29.038848,14.20189698,.00159632,89.0123,23.4003,146.7765,213.4431,0,U,69113,999,283,.1442166E-3,.322E-5,0
QIANFAN-155,2026-108L,2026-06-06T11:33:20.399040,14.19535095,.00166796,89.0122,23.4007,147.1302,213.0928,0,U,69114,999,283,.15219855E-3,.335E-5,0
QIANFAN-156,2026-108M,2026-06-06T13:04:27.552576,14.20957567,.00163148,89.0126,23.3922,148.1475,212.0706,0,U,69115,999,284,.14335782E-3,.325E-5,0
QIANFAN-157,2026-108N,2026-06-06T07:24:56.109600,14.24908081,.00165908,89.0123,23.4118,153.6669,206.5371,0,U,69116,999,281,.15435736E-3,.375E-5,0
QIANFAN-158,2026-108P,2026-06-06T11:14:17.878272,14.21846969,.00162417,89.0122,23.3985,149.6968,210.5166,0,U,69117,999,283,.14604101E-3,.336E-5,0
QIANFAN-159,2026-108Q,2026-06-06T14:31:21.472896,14.22293439,.00159635,89.0120,23.3819,149.1161,211.0972,0,U,69118,999,285,.15215186E-3,.353E-5,0
QIANFAN-160,2026-108R,2026-06-06T14:26:48.824736,14.22717258,.00156822,89.0123,23.3819,148.9114,211.3009,0,U,69119,999,285,.36534732E-4,.96E-6,0
QIANFAN-161,2026-108S,2026-06-06T14:21:56.073024,14.23188731,.00156949,89.0122,23.3813,149.6820,210.5283,0,U,69120,999,285,.14385513E-3,.34E-5,0
QIANFAN-162,2026-108T,2026-06-06T14:19:01.982208,14.23624182,.00155309,89.0122,23.3809,150.8662,209.3400,0,U,69121,999,285,.14826877E-3,.353E-5,0
SMILE,2026-109A,2026-05-24T15:40:35.120928,14.57062785,.00091232,70.0007,229.2745,259.5159,100.4951,0,U,69123,999,80,-.42378883E-3,-.1976E-4,0
STARLINK-37726,2026-110A,2026-06-06T14:00:04.000032,15.49156036,.0001316,97.2848,353.7033,76.7621,327.4712,0,U,69124,999,395,.52186349E-3,.28362E-3,0
STARLINK-37722,2026-110B,2026-06-06T14:00:04.000032,15.64635081,.00013273,97.2846,353.8298,86.7671,255.3014,0,U,69125,999,400,-.28752133E-1,-.2431362E-1,0
STARLINK-37715,2026-110C,2026-06-06T03:01:42.620736,15.81682789,.00173428,97.2830,353.3873,328.9137,31.1104,0,U,69126,999,389,.53471926E-2,.1205927E-1,0
STARLINK-37706,2026-110D,2026-06-06T14:00:04.000032,15.75026581,.00017958,97.2839,353.8691,70.0822,2.8860,0,U,69127,999,395,-.19903826E-1,-.2517764E-1,0
STARLINK-37723,2026-110E,2026-06-06T14:00:04.000032,15.75469116,.00018237,97.2839,353.8719,63.7053,15.2331,0,U,69128,999,395,-.19652807E-1,-.2532235E-1,0
STARLINK-37720,2026-110F,2026-06-06T14:00:04.000032,15.49150453,.00019334,97.2848,353.7246,85.7859,7.3904,0,U,69129,999,395,.10886247E-2,.59487E-3,0
STARLINK-37533,2026-110G,2026-06-05T20:51:48.022848,15.80753113,.00016063,97.2839,353.1262,86.5092,273.6360,0,U,69130,999,385,-.28200148E-3,-.53675E-3,0
STARLINK-37530,2026-110H,2026-06-05T22:21:52.099200,15.80840143,.000083,97.2840,353.1944,62.1150,298.0203,0,U,69131,999,386,.27125343E-3,.52184E-3,0
STARLINK-37660,2026-110J,2026-06-06T14:00:04.000032,15.66440540,.00014037,97.2841,353.8472,67.8672,313.2223,0,U,69132,999,395,-.21574618E-1,-.197419E-1,0
STARLINK-37633,2026-110K,2026-06-06T14:00:04.000032,15.67542968,.00013322,97.2841,353.8540,75.3406,320.3593,0,U,69133,999,395,-.23866877E-1,-.2242125E-1,0
STARLINK-37361,2026-110L,2026-06-06T15:02:05.739648,15.78331139,.00016038,97.2835,353.9329,71.1551,288.9890,0,U,69134,999,397,-.62432908E-2,-.957576E-2,0
STARLINK-37372,2026-110M,2026-06-06T14:00:04.000032,15.68965882,.00017499,97.2839,353.8694,65.5134,9.0334,0,U,69135,999,395,-.2639939E-1,-.263136E-1,0
