QIANFAN-147             
1 69106U 26108C   26157.58775917  .00000307  00000+0  14530-3 0  9994
2 69106  89.0118  23.3973 0015593 144.2835 215.9400 14.17033400  2846
QIANFAN-148             
1 69107U 26108D   26157.58180956  .00000300  00000+0  14082-3 0  9993
2 69107  89.0119  23.3967 0016097 149.2020 211.0116 14.17402496  2848
QIANFAN-149             
1 69108U 26108E   26157.57916796  .00000314  00000+0  14657-3 0  9995
2 69108  89.0122  23.3967 0015746 148.4679 211.7457 14.17857069  2849
QIANFAN-150             
1 69109U 26108F   26157.57093539  .00000303  00000+0  14022-3 0  9991
2 69109  89.0122  23.3956 0015779 150.1874 210.0217 14.18305512  2849
QIANFAN-151             
1 69110U 26108G   26157.56547087  .00000327  00000+0  15052-3 0  9994
2 69110  89.0122  23.3946 0015900 148.7566 211.4572 14.18801219  2841
QIANFAN-152             
1 69111U 26108H   26157.56086919  .00000320  00000+0  14538-3 0  9998
2 69111  89.0120  23.3937 0015111 148.6676 211.5418 14.19418500  2843
QIANFAN-153             
1 69112U 26108J   26157.55584120  .00000315  00000+0  14198-3 0  9991
2 69112  89.0118  23.3926 0016306 148.6396 211.5770 14.19641654  2844
QIANFAN-154             
1 69113U 26108K   26157.47880832  .00000322  00000+0  14422-3 0  9990
2 69113  89.0123  23.4003 0015963 146.7765 213.4431 14.20189698  2836
QIANFAN-155             
1 69114U 26108L   26157.48148610  .00000335  00000+0  15220-3 0  9994
2 69114  89.0122  23.4007 0016679 147.1302 213.0928 14.19535095  2838
QIANFAN-156             
1 69115U 26108M   26157.54476334  .00000325  00000+0  14336-3 0  9995
2 69115  89.0126  23.3922 0016314 148.1475 212.0706 14.20957567  2844
QIANFAN-157             
1 69116U 26108N   26157.30898275  .00000375  00000+0  15436-3 0  9999
2 69116  89.0123  23.4118 0016590 153.6669 206.5371 14.24908081  2816
QIANFAN-158             
1 69117U 26108P   26157.46826248  .00000336  00000+0  14604-3 0  9991
2 69117  89.0122  23.3985 0016241 149.6968 210.5166 14.21846969  2839
QIANFAN-159             
1 69118U 26108Q   26157.60510964  .00000353  00000+0  15215-3 0  9991
2 69118  89.0120  23.3819 0015963 149.1161 211.0972 14.22293439  2856
QIANFAN-160             
1 69119U 26108R   26157.60195399  .00000096  00000+0  36535-4 0  9996
2 69119  89.0123  23.3819 0015682 148.9114 211.3009 14.22717258  2857
QIANFAN-161             
1 69120U 26108S   26157.59856566  .00000340  00000+0  14386-3 0  9997
2 69120  89.0122  23.3813 0015694 149.6820 210.5283 14.23188731  2851
QIANFAN-162             
1 69121U 26108T   26157.59655072  .00000353  00000+0  14827-3 0  9991
2 69121  89.0122  23.3809 0015530 150.8662 209.3400 14.23624182  2856
SMILE                   
1 69123U 26109A   26144.65318427 -.00001976  00000+0 -42379-3 0  9994
2 69123  70.0007 229.2745 0009123 259.5159 100.4951 14.57062785   802
STARLINK-37726          
1 69124U 26110A   26157.58337963  .00028362  00000+0  52186-3 0  9992
2 69124  97.2848 353.7033 0001316  76.7621 327.4712 15.49156036  3959
STARLINK-37722          
1 69125U 26110B   26157.58337963 -.02431362  00000+0 -28752-1 0  9995
2 69125  97.2846 353.8298 0001327  86.7671 255.3014 15.64635081  4000
STARLINK-37715          
1 69126U 26110C   26157.12618774  .01205927  00000+0  53472-2 0  9999
2 69126  97.2830 353.3873 0017342 328.9137  31.1104 15.81682789  3892
STARLINK-37706          
1 69127U 26110D   26157.58337963 -.02517764  00000+0 -19904-1 0  9997
2 69127  97.2839 353.8691 0001795  70.0822   2.8860 15.75026581  3952
STARLINK-37723          
1 69128U 26110E   26157.58337963 -.02532235  00000+0 -19653-1 0  9999
2 69128  97.2839 353.8719 0001823  63.7053  15.2331 15.75469116  3957
STARLINK-37720          
1 69129U 26110F   26157.58337963  .00059487  00000+0  10886-2 0  9999
2 69129  97.2848 353.7246 0001933  85.7859   7.3904 15.49150453  3952
STARLINK-37533          
1 69130U 26110G   26156.86930582 -.00053675  00000+0 -28200-3 0  9992
2 69130  97.2839 353.1262 0001606  86.5092 273.6360 15.80753113  3851
STARLINK-37530          
1 69131U 26110H   26156.93185300  .00052184  00000+0  27125-3 0  9998
2 69131  97.2840 353.1944 0000830  62.1150 298.0203 15.80840143  3862
STARLINK-37660          
1 69132U 26110J   26157.58337963 -.01974190  00000+0 -21575-1 0  9999
2 69132  97.2841 353.8472 0001403  67.8672 313.2223 15.66440540  3958
STARLINK-37633          
1 69133U 26110K   26157.58337963 -.02242125  00000+0 -23867-1 0  9993
2 69133  97.2841 353.8540 0001332  75.3406 320.3593 15.67542968  3952
STARLINK-37361          
1 69134U 26110L   26157.62645532 -.00957576  00000+0 -62433-2 0  9997
2 69134  97.2835 353.9329 0001603  71.1551 288.9890 15.78331139  3977
STARLINK-37372          
1 69135U 26110M   26157.58337963 -.02631360  00000+0 -26399-1 0  9991
2 69135  97.2839 353.8694 0001749  65.5134   9.0334 15.68965882  3951
